[{"OBJECT_NAME":"STARLINK-35739","OBJECT_ID":"2025-294Z","EPOCH":"2026-03-09T22:12:36.454752","MEAN_MOTION":15.27596095,"ECCENTRICITY":3.199e-5,"INCLINATION":42.9976,"RA_OF_ASC_NODE":36.8746,"ARG_OF_PERICENTER":229.3795,"MEAN_ANOMALY":130.7029,"EPHEMERIS_TYPE":0,"CLASSIFICATION_TYPE":"U","NORAD_CAT_ID":67053,"ELEMENT_SET_NO":999,"REV_AT_EPOCH":1483,"BSTAR":0.0012524078,"MEAN_MOTION_DOT":0.00034379,"MEAN_MOTION_DDOT":0},{"OBJECT_NAME":"ELECTRON KICK STAGE R\/B","OBJECT_ID":"2024-077D","EPOCH":"2026-03-09T23:22:03.772128","MEAN_MOTION":14.57371822,"ECCENTRICITY":0.03475139,"INCLINATION":97.3266,"RA_OF_ASC_NODE":78.5056,"ARG_OF_PERICENTER":202.0113,"MEAN_ANOMALY":156.5853,"EPHEMERIS_TYPE":0,"CLASSIFICATION_TYPE":"U","NORAD_CAT_ID":59590,"ELEMENT_SET_NO":999,"REV_AT_EPOCH":9944,"BSTAR":0.00037103128,"MEAN_MOTION_DOT":3.845e-5,"MEAN_MOTION_DDOT":0}]
